STARLINK-35732          
1 67037U 25294H   25358.83334491 -.01892125  00000+0 -15610-1 0  9996
2 67037  42.9992 108.1866 0001481 290.6137 159.1771 15.72803025  2165
STARLINK-35775          
1 67038U 25294J   25358.83334491 -.01885992  00000+0 -15559-1 0  9993
2 67038  42.9994 108.1812 0001536 290.3519 161.5111 15.72791288  2163
STARLINK-35705          
1 67039U 25294K   25358.83334491 -.01881927  00000+0 -15536-1 0  9993
2 67039  42.9995 108.1707 0001575 293.3798 162.7154 15.72767784  2055
STARLINK-35786          
1 67040U 25294L   25358.83334491 -.01888170  00000+0 -15588-1 0  9999
2 67040  42.9997 108.1763 0001512 290.3573 163.6838 15.72779105  2059
STARLINK-35765          
1 67041U 25294M   25358.83334491 -.01885035  00000+0 -15568-1 0  9995
2 67041  42.9995 108.1655 0001539 292.1360 165.9662 15.72763828  2056
STARLINK-35773          
1 67042U 25294N   25358.83334491 -.01883170  00000+0 -15558-1 0  9993
2 67042  42.9996 108.1599 0001589 290.4014 169.8268 15.72752472  2246
STARLINK-35901          
1 67043U 25294P   25358.83334491 -.01893603  00000+0 -15659-1 0  9998
2 67043  42.9998 108.1554 0001503 289.8163 172.5179 15.72751344  2242
STARLINK-35884          
1 67044U 25294Q   25358.83334491 -.01886613  00000+0 -15601-1 0  9999
2 67044  42.9999 108.1501 0001526 293.4732 170.9341 15.72737426  2242
STARLINK-35891          
1 67045U 25294R   25358.83334491 -.01936135  00000+0 -15714-1 0  9990
2 67045  42.9996 108.1438 0001492 290.4916 176.2407 15.72723648  2166
STARLINK-35721          
1 67046U 25294S   25358.83334491 -.01891023  00000+0 -15666-1 0  9993
2 67046  43.0000 108.1387 0001405 291.8654 177.0428 15.72705942  2244
STARLINK-35779          
1 67047U 25294T   25358.83334491 -.01889868  00000+0 -15669-1 0  9991
2 67047  42.9998 108.1328 0001461 289.9921 181.2421 15.72683618  2055
STARLINK-35905          
1 67048U 25294U   25358.83334491 -.01891162  00000+0 -15683-1 0  9998
2 67048  42.9998 108.1281 0001386 290.3443 182.8471 15.72682226  2163
