CCSDS_OMM_VERS = 2.0
CREATION_DATE  = 
ORIGINATOR     = 

OBJECT_NAME    = STARLINK-35732
OBJECT_ID      = 2025-294H
CENTER_NAME    = EARTH
REF_FRAME      = TEME
TIME_SYSTEM    = UTC
MEAN_ELEMENT_THEORY = SGP/SGP4

EPOCH          = 2025-12-24T20:00:01.000224
MEAN_MOTION    = 15.72803025
ECCENTRICITY   = .0001481
INCLINATION    = 42.9992
RA_OF_ASC_NODE = 108.1866
ARG_OF_PERICENTER = 290.6137
MEAN_ANOMALY   = 159.1771

EPHEMERIS_TYPE = 0
CLASSIFICATION_TYPE = U
NORAD_CAT_ID   = 67037
ELEMENT_SET_NO = 999
REV_AT_EPOCH   = 216
BSTAR          = -.1561E-1
MEAN_MOTION_DOT = -.1892125E-1
MEAN_MOTION_DDOT = 0

CCSDS_OMM_VERS = 2.0
CREATION_DATE  = 
ORIGINATOR     = 

OBJECT_NAME    = STARLINK-35775
OBJECT_ID      = 2025-294J
CENTER_NAME    = EARTH
REF_FRAME      = TEME
TIME_SYSTEM    = UTC
MEAN_ELEMENT_THEORY = SGP/SGP4

EPOCH          = 2025-12-24T20:00:01.000224
MEAN_MOTION    = 15.72791288
ECCENTRICITY   = .0001536
INCLINATION    = 42.9994
RA_OF_ASC_NODE = 108.1812
ARG_OF_PERICENTER = 290.3519
MEAN_ANOMALY   = 161.5111

EPHEMERIS_TYPE = 0
CLASSIFICATION_TYPE = U
NORAD_CAT_ID   = 67038
ELEMENT_SET_NO = 999
REV_AT_EPOCH   = 216
BSTAR          = -.15559E-1
MEAN_MOTION_DOT = -.1885992E-1
MEAN_MOTION_DDOT = 0

CCSDS_OMM_VERS = 2.0
CREATION_DATE  = 
ORIGINATOR     = 

OBJECT_NAME    = STARLINK-35705
OBJECT_ID      = 2025-294K
CENTER_NAME    = EARTH
REF_FRAME      = TEME
TIME_SYSTEM    = UTC
MEAN_ELEMENT_THEORY = SGP/SGP4

EPOCH          = 2025-12-24T20:00:01.000224
MEAN_MOTION    = 15.72767784
ECCENTRICITY   = .0001575
INCLINATION    = 42.9995
RA_OF_ASC_NODE = 108.1707
ARG_OF_PERICENTER = 293.3798
MEAN_ANOMALY   = 162.7154

EPHEMERIS_TYPE = 0
CLASSIFICATION_TYPE = U
NORAD_CAT_ID   = 67039
ELEMENT_SET_NO = 999
REV_AT_EPOCH   = 205
BSTAR          = -.15536E-1
MEAN_MOTION_DOT = -.1881927E-1
MEAN_MOTION_DDOT = 0

CCSDS_OMM_VERS = 2.0
CREATION_DATE  = 
ORIGINATOR     = 

OBJECT_NAME    = STARLINK-35786
OBJECT_ID      = 2025-294L
CENTER_NAME    = EARTH
REF_FRAME      = TEME
TIME_SYSTEM    = UTC
MEAN_ELEMENT_THEORY = SGP/SGP4

EPOCH          = 2025-12-24T20:00:01.000224
MEAN_MOTION    = 15.72779105
ECCENTRICITY   = .0001512
INCLINATION    = 42.9997
RA_OF_ASC_NODE = 108.1763
ARG_OF_PERICENTER = 290.3573
MEAN_ANOMALY   = 163.6838

EPHEMERIS_TYPE = 0
CLASSIFICATION_TYPE = U
NORAD_CAT_ID   = 67040
ELEMENT_SET_NO = 999
REV_AT_EPOCH   = 205
BSTAR          = -.15588E-1
MEAN_MOTION_DOT = -.188817E-1
MEAN_MOTION_DDOT = 0

CCSDS_OMM_VERS = 2.0
CREATION_DATE  = 
ORIGINATOR     = 

OBJECT_NAME    = STARLINK-35765
OBJECT_ID      = 2025-294M
CENTER_NAME    = EARTH
REF_FRAME      = TEME
TIME_SYSTEM    = UTC
MEAN_ELEMENT_THEORY = SGP/SGP4

EPOCH          = 2025-12-24T20:00:01.000224
MEAN_MOTION    = 15.72763828
ECCENTRICITY   = .0001539
INCLINATION    = 42.9995
RA_OF_ASC_NODE = 108.1655
ARG_OF_PERICENTER = 292.1360
MEAN_ANOMALY   = 165.9662

EPHEMERIS_TYPE = 0
CLASSIFICATION_TYPE = U
NORAD_CAT_ID   = 67041
ELEMENT_SET_NO = 999
REV_AT_EPOCH   = 205
BSTAR          = -.15568E-1
MEAN_MOTION_DOT = -.1885035E-1
MEAN_MOTION_DDOT = 0

CCSDS_OMM_VERS = 2.0
CREATION_DATE  = 
ORIGINATOR     = 

OBJECT_NAME    = STARLINK-35773
OBJECT_ID      = 2025-294N
CENTER_NAME    = EARTH
REF_FRAME      = TEME
TIME_SYSTEM    = UTC
MEAN_ELEMENT_THEORY = SGP/SGP4

EPOCH          = 2025-12-24T20:00:01.000224
MEAN_MOTION    = 15.72752472
ECCENTRICITY   = .0001589
INCLINATION    = 42.9996
RA_OF_ASC_NODE = 108.1599
ARG_OF_PERICENTER = 290.4014
MEAN_ANOMALY   = 169.8268

EPHEMERIS_TYPE = 0
CLASSIFICATION_TYPE = U
NORAD_CAT_ID   = 67042
ELEMENT_SET_NO = 999
REV_AT_EPOCH   = 224
BSTAR          = -.15558E-1
MEAN_MOTION_DOT = -.188317E-1
MEAN_MOTION_DDOT = 0

CCSDS_OMM_VERS = 2.0
CREATION_DATE  = 
ORIGINATOR     = 

OBJECT_NAME    = STARLINK-35901
OBJECT_ID      = 2025-294P
CENTER_NAME    = EARTH
REF_FRAME      = TEME
TIME_SYSTEM    = UTC
MEAN_ELEMENT_THEORY = SGP/SGP4

EPOCH          = 2025-12-24T20:00:01.000224
MEAN_MOTION    = 15.72751344
ECCENTRICITY   = .0001503
INCLINATION    = 42.9998
RA_OF_ASC_NODE = 108.1554
ARG_OF_PERICENTER = 289.8163
MEAN_ANOMALY   = 172.5179

EPHEMERIS_TYPE = 0
CLASSIFICATION_TYPE = U
NORAD_CAT_ID   = 67043
ELEMENT_SET_NO = 999
REV_AT_EPOCH   = 224
BSTAR          = -.15659E-1
MEAN_MOTION_DOT = -.1893603E-1
MEAN_MOTION_DDOT = 0

CCSDS_OMM_VERS = 2.0
CREATION_DATE  = 
ORIGINATOR     = 

OBJECT_NAME    = STARLINK-35884
OBJECT_ID      = 2025-294Q
CENTER_NAME    = EARTH
REF_FRAME      = TEME
TIME_SYSTEM    = UTC
MEAN_ELEMENT_THEORY = SGP/SGP4

EPOCH          = 2025-12-24T20:00:01.000224
MEAN_MOTION    = 15.72737426
ECCENTRICITY   = .0001526
INCLINATION    = 42.9999
RA_OF_ASC_NODE = 108.1501
ARG_OF_PERICENTER = 293.4732
MEAN_ANOMALY   = 170.9341

EPHEMERIS_TYPE = 0
CLASSIFICATION_TYPE = U
NORAD_CAT_ID   = 67044
ELEMENT_SET_NO = 999
REV_AT_EPOCH   = 224
BSTAR          = -.15601E-1
MEAN_MOTION_DOT = -.1886613E-1
MEAN_MOTION_DDOT = 0

CCSDS_OMM_VERS = 2.0
CREATION_DATE  = 
ORIGINATOR     = 

OBJECT_NAME    = STARLINK-35891
OBJECT_ID      = 2025-294R
CENTER_NAME    = EARTH
REF_FRAME      = TEME
TIME_SYSTEM    = UTC
MEAN_ELEMENT_THEORY = SGP/SGP4

EPOCH          = 2025-12-24T20:00:01.000224
MEAN_MOTION    = 15.72723648
ECCENTRICITY   = .0001492
INCLINATION    = 42.9996
RA_OF_ASC_NODE = 108.1438
ARG_OF_PERICENTER = 290.4916
MEAN_ANOMALY   = 176.2407

EPHEMERIS_TYPE = 0
CLASSIFICATION_TYPE = U
NORAD_CAT_ID   = 67045
ELEMENT_SET_NO = 999
REV_AT_EPOCH   = 216
BSTAR          = -.15714E-1
MEAN_MOTION_DOT = -.1936135E-1
MEAN_MOTION_DDOT = 0

CCSDS_OMM_VERS = 2.0
CREATION_DATE  = 
ORIGINATOR     = 

OBJECT_NAME    = STARLINK-35721
OBJECT_ID      = 2025-294S
CENTER_NAME    = EARTH
REF_FRAME      = TEME
TIME_SYSTEM    = UTC
MEAN_ELEMENT_THEORY = SGP/SGP4

EPOCH          = 2025-12-24T20:00:01.000224
MEAN_MOTION    = 15.72705942
ECCENTRICITY   = .0001405
INCLINATION    = 43.0000
RA_OF_ASC_NODE = 108.1387
ARG_OF_PERICENTER = 291.8654
MEAN_ANOMALY   = 177.0428

EPHEMERIS_TYPE = 0
CLASSIFICATION_TYPE = U
NORAD_CAT_ID   = 67046
ELEMENT_SET_NO = 999
REV_AT_EPOCH   = 224
BSTAR          = -.15666E-1
MEAN_MOTION_DOT = -.1891023E-1
MEAN_MOTION_DDOT = 0

CCSDS_OMM_VERS = 2.0
CREATION_DATE  = 
ORIGINATOR     = 

OBJECT_NAME    = STARLINK-35779
OBJECT_ID      = 2025-294T
CENTER_NAME    = EARTH
REF_FRAME      = TEME
TIME_SYSTEM    = UTC
MEAN_ELEMENT_THEORY = SGP/SGP4

EPOCH          = 2025-12-24T20:00:01.000224
MEAN_MOTION    = 15.72683618
ECCENTRICITY   = .0001461
INCLINATION    = 42.9998
RA_OF_ASC_NODE = 108.1328
ARG_OF_PERICENTER = 289.9921
MEAN_ANOMALY   = 181.2421

EPHEMERIS_TYPE = 0
CLASSIFICATION_TYPE = U
NORAD_CAT_ID   = 67047
ELEMENT_SET_NO = 999
REV_AT_EPOCH   = 205
BSTAR          = -.15669E-1
MEAN_MOTION_DOT = -.1889868E-1
MEAN_MOTION_DDOT = 0

CCSDS_OMM_VERS = 2.0
CREATION_DATE  = 
ORIGINATOR     = 

OBJECT_NAME    = STARLINK-35905
OBJECT_ID      = 2025-294U
CENTER_NAME    = EARTH
REF_FRAME      = TEME
TIME_SYSTEM    = UTC
MEAN_ELEMENT_THEORY = SGP/SGP4

EPOCH          = 2025-12-24T20:00:01.000224
MEAN_MOTION    = 15.72682226
ECCENTRICITY   = .0001386
INCLINATION    = 42.9998
RA_OF_ASC_NODE = 108.1281
ARG_OF_PERICENTER = 290.3443
MEAN_ANOMALY   = 182.8471

EPHEMERIS_TYPE = 0
CLASSIFICATION_TYPE = U
NORAD_CAT_ID   = 67048
ELEMENT_SET_NO = 999
REV_AT_EPOCH   = 216
BSTAR          = -.15683E-1
MEAN_MOTION_DOT = -.1891162E-1
MEAN_MOTION_DDOT = 0

